{"type": "FeatureCollection", "features": [ {"type": "Feature", "properties": {"norad_id": 38552, "name": "METEOSAT-10 (MSG-3)", "group": "weather", "lat": 4.231793442086725, "lon": 144.95268355557118, "alt_km": 35787.06022896548, "timestamp": "2025-12-20T03:42:47.035344+00:00", "meta": {"OBJECT_NAME": "METEOSAT-10 (MSG-3)", "OBJECT_ID": "2012-035B", "EPOCH": "2025-12-19T08:07:49.924128", "MEAN_MOTION": 1.00276524, "ECCENTRICITY": 6.93e-05, "INCLINATION": 4.2433, "RA_OF_ASC_NODE": 61.706, "ARG_OF_PERICENTER": 270.066, "MEAN_ANOMALY": 238.6463, "EPHEMERIS_TYPE": 0, "CLASSIFICATION_TYPE": "U", "NORAD_CAT_ID": 38552, "ELEMENT_SET_NO": 999, "REV_AT_EPOCH": 4905, "BSTAR": 0, "MEAN_MOTION_DOT": 1.7e-07, "MEAN_MOTION_DDOT": 0}, "tle": {"line1": "1 38552U 12035B   25353.33877227  .00000017  00000+0  00000+0 0  9997", "line2": "2 38552   4.2433  61.7060 0000693 270.0660 238.6463  1.00276524 49057"}}, "geometry": {"type": "Point", "coordinates": [144.95268355557118, 4.231793442086725]}}, {"type": "Feature", "properties": {"norad_id": 38771, "name": "METOP-B", "group": "weather", "lat": -29.117249901244737, "lon": -140.89292649449564, "alt_km": 826.0679608903101, "timestamp": "2025-12-20T03:42:47.035355+00:00", "meta": {"OBJECT_NAME": "METOP-B", "OBJECT_ID": "2012-049A", "EPOCH": "2025-12-19T18:17:03.286176", "MEAN_MOTION": 14.21410914, "ECCENTRICITY": 0.0003165, "INCLINATION": 98.6789, "RA_OF_ASC_NODE": 43.6013, "ARG_OF_PERICENTER": 129.3907, "MEAN_ANOMALY": 230.7551, "EPHEMERIS_TYPE": 0, "CLASSIFICATION_TYPE": "U", "NORAD_CAT_ID": 38771, "ELEMENT_SET_NO": 999, "REV_AT_EPOCH": 68777, "BSTAR": 6.9081e-05, "MEAN_MOTION_DOT": 1.07e-06, "MEAN_MOTION_DDOT": 0}, "tle": {"line1": "1 38771U 12049A   25353.76184359  .00000107  00000+0  69081-4 0  9998", "line2": "2 38771  98.6789  43.6013 0003165 129.3907 230.7551 14.21410914687773"}}, "geometry": {"type": "Point", "coordinates": [-140.89292649449564, -29.117249901244737]}}, {"type": "Feature", "properties": {"norad_id": 39216, "name": "INSAT-3D", "group": "weather", "lat": -0.26185328557722815, "lon": -85.87550431226296, "alt_km": 35782.90133839106, "timestamp": "2025-12-20T03:42:47.035368+00:00", "meta": {"OBJECT_NAME": "INSAT-3D", "OBJECT_ID": "2013-038B", "EPOCH": "2025-12-17T17:21:59.330304", "MEAN_MOTION": 1.00267779, "ECCENTRICITY": 0.00012009, "INCLINATION": 1.4572, "RA_OF_ASC_NODE": 84.9421, "ARG_OF_PERICENTER": 166.0293, "MEAN_ANOMALY": 225.6028, "EPHEMERIS_TYPE": 0, "CLASSIFICATION_TYPE": "U", "NORAD_CAT_ID": 39216, "ELEMENT_SET_NO": 999, "REV_AT_EPOCH": 4526, "BSTAR": 0, "MEAN_MOTION_DOT": -3.16e-06, "MEAN_MOTION_DDOT": 0}, "tle": {"line1": "1 39216U 13038B   25351.72360336 -.00000316  00000+0  00000+0 0  9991", "line2": "2 39216   1.4572  84.9421 0001200 166.0293 225.6028  1.00267779 45261"}}, "geometry": {"type": "Point", "coordinates": [-85.87550431226296, -0.26185328557722815]}}, {"type": "Feature", "properties": {"norad_id": 39260, "name": "FENGYUN 3C", "group": "weather", "lat": -55.07897270441786, "lon": -16.193609414820624, "alt_km": 853.694717199618, "timestamp": "2025-12-20T03:42:47.035380+00:00", "meta": {"OBJECT_NAME": "FENGYUN 3C", "OBJECT_ID": "2013-052A", "EPOCH": "2025-12-19T21:11:34.325952", "MEAN_MOTION": 14.15698416, "ECCENTRICITY": 0.0014684, "INCLINATION": 98.477, "RA_OF_ASC_NODE": 331.2138, "ARG_OF_PERICENTER": 175.2228, "MEAN_ANOMALY": 184.9089, "EPHEMERIS_TYPE": 0, "CLASSIFICATION_TYPE": "U", "NORAD_CAT_ID": 39260, "ELEMENT_SET_NO": 999, "REV_AT_EPOCH": 63319, "BSTAR": 4.8073e-05, "MEAN_MOTION_DOT": 5.3e-07, "MEAN_MOTION_DDOT": 0}, "tle": {"line1": "1 39260U 13052A   25353.88303618  .00000053  00000+0  48073-4 0  9999", "line2": "2 39260  98.4770 331.2138 0014684 175.2228 184.9089 14.15698416633194"}}, "geometry": {"type": "Point", "coordinates": [-16.193609414820624, -55.07897270441786]}}, {"type": "Feature", "properties": {"norad_id": 40069, "name": "METEOR-M 2", "group": "weather", "lat": 74.43540095575321, "lon": -60.97420336057991, "alt_km": 814.8237143462629, "timestamp": "2025-12-20T03:42:47.035391+00:00", "meta": {"OBJECT_NAME": "METEOR-M 2", "OBJECT_ID": "2014-037A", "EPOCH": "2025-12-19T20:35:40.100928", "MEAN_MOTION": 14.2138909, "ECCENTRICITY": 0.0005365, "INCLINATION": 98.49, "RA_OF_ASC_NODE": 331.1696, "ARG_OF_PERICENTER": 187.2258, "MEAN_ANOMALY": 172.8844, "EPHEMERIS_TYPE": 0, "CLASSIFICATION_TYPE": "U", "NORAD_CAT_ID": 40069, "ELEMENT_SET_NO": 999, "REV_AT_EPOCH": 59384, "BSTAR": 7.9599e-05, "MEAN_MOTION_DOT": 1.32e-06, "MEAN_MOTION_DDOT": 0}, "tle": {"line1": "1 40069U 14037A   25353.85810302  .00000132  00000+0  79599-4 0  9997", "line2": "2 40069  98.4900 331.1696 0005365 187.2258 172.8844 14.21389090593842"}}, "geometry": {"type": "Point", "coordinates": [-60.97420336057991, 74.43540095575321]}}, {"type": "Feature", "properties": {"norad_id": 40267, "name": "HIMAWARI-8", "group": "weather", "lat": -0.013103808521920507, "lon": -74.65386291738231, "alt_km": 35782.65738523457, "timestamp": "2025-12-20T03:42:47.035403+00:00", "meta": {"OBJECT_NAME": "HIMAWARI-8", "OBJECT_ID": "2014-060A", "EPOCH": "2025-12-19T19:04:03.567072", "MEAN_MOTION": 1.00271352, "ECCENTRICITY": 8.59e-05, "INCLINATION": 0.0293, "RA_OF_ASC_NODE": 121.6816, "ARG_OF_PERICENTER": 172.8726, "MEAN_ANOMALY": 220.7679, "EPHEMERIS_TYPE": 0, "CLASSIFICATION_TYPE": "U", "NORAD_CAT_ID": 40267, "ELEMENT_SET_NO": 999, "REV_AT_EPOCH": 4096, "BSTAR": 0, "MEAN_MOTION_DOT": -2.51e-06, "MEAN_MOTION_DDOT": 0}, "tle": {"line1": "1 40267U 14060A   25353.79448573 -.00000251  00000+0  00000+0 0  9992", "line2": "2 40267   0.0293 121.6816 0000859 172.8726 220.7679  1.00271352 40968"}}, "geometry": {"type": "Point", "coordinates": [-74.65386291738231, -0.013103808521920507]}}, {"type": "Feature", "properties": {"norad_id": 40367, "name": "FENGYUN 2G", "group": "weather", "lat": 0.9701689910308569, "lon": -115.99437958298513, "alt_km": 35779.44703405512, "timestamp": "2025-12-20T03:42:47.035415+00:00", "meta": {"OBJECT_NAME": "FENGYUN 2G", "OBJECT_ID": "2014-090A", "EPOCH": "2025-12-19T18:56:11.651136", "MEAN_MOTION": 1.00261653, "ECCENTRICITY": 0.0002678, "INCLINATION": 5.1853, "RA_OF_ASC_NODE": 75.0175, "ARG_OF_PERICENTER": 203.1106, "MEAN_ANOMALY": 193.8582, "EPHEMERIS_TYPE": 0, "CLASSIFICATION_TYPE": "U", "NORAD_CAT_ID": 40367, "ELEMENT_SET_NO": 999, "REV_AT_EPOCH": 4020, "BSTAR": 0, "MEAN_MOTION_DOT": -2.79e-06, "MEAN_MOTION_DDOT": 0}, "tle": {"line1": "1 40367U 14090A   25353.78902374 -.00000279  00000+0  00000+0 0  9999", "line2": "2 40367   5.1853  75.0175 0002678 203.1106 193.8582  1.00261653 40201"}}, "geometry": {"type": "Point", "coordinates": [-115.99437958298513, 0.9701689910308569]}}, {"type": "Feature", "properties": {"norad_id": 40732, "name": "METEOSAT-11 (MSG-4)", "group": "weather", "lat": 2.7389068669413814, "lon": 153.8692051536895, "alt_km": 35784.22255722532, "timestamp": "2025-12-20T03:42:47.035427+00:00", "meta": {"OBJECT_NAME": "METEOSAT-11 (MSG-4)", "OBJECT_ID": "2015-034A", "EPOCH": "2025-12-19T18:26:37.153248", "MEAN_MOTION": 1.0026969, "ECCENTRICITY": 8.45e-05, "INCLINATION": 2.7536, "RA_OF_ASC_NODE": 71.9835, "ARG_OF_PERICENTER": 136.1674, "MEAN_ANOMALY": 166.3221, "EPHEMERIS_TYPE": 0, "CLASSIFICATION_TYPE": "U", "NORAD_CAT_ID": 40732, "ELEMENT_SET_NO": 999, "REV_AT_EPOCH": 541, "BSTAR": 0, "MEAN_MOTION_DOT": 8.3e-07, "MEAN_MOTION_DDOT": 0}, "tle": {"line1": "1 40732U 15034A   25353.76848557  .00000083  00000+0  00000+0 0  9996", "line2": "2 40732   2.7536  71.9835 0000845 136.1674 166.3221  1.00269690  5413"}}, "geometry": {"type": "Point", "coordinates": [153.8692051536895, 2.7389068669413814]}}, {"type": "Feature", "properties": {"norad_id": 41105, "name": "ELEKTRO-L 2", "group": "weather", "lat": 5.281830726881694, "lon": 130.03377349084008, "alt_km": 35798.40073854944, "timestamp": "2025-12-20T03:42:47.035439+00:00", "meta": {"OBJECT_NAME": "ELEKTRO-L 2", "OBJECT_ID": "2015-074A", "EPOCH": "2025-12-19T09:46:17.993280", "MEAN_MOTION": 1.00272637, "ECCENTRICITY": 0.0003545, "INCLINATION": 6.2415, "RA_OF_ASC_NODE": 72.7491, "ARG_OF_PERICENTER": 209.2952, "MEAN_ANOMALY": 298.3067, "EPHEMERIS_TYPE": 0, "CLASSIFICATION_TYPE": "U", "NORAD_CAT_ID": 41105, "ELEMENT_SET_NO": 999, "REV_AT_EPOCH": 3670, "BSTAR": 0, "MEAN_MOTION_DOT": -9.8e-07, "MEAN_MOTION_DDOT": 0}, "tle": {"line1": "1 41105U 15074A   25353.40715270 -.00000098  00000+0  00000+0 0  9998", "line2": "2 41105   6.2415  72.7491 0003545 209.2952 298.3067  1.00272637 36706"}}, "geometry": {"type": "Point", "coordinates": [130.03377349084008, 5.281830726881694]}}, {"type": "Feature", "properties": {"norad_id": 41752, "name": "INSAT-3DR", "group": "weather", "lat": 0.060187380947175025, "lon": -141.46204581091627, "alt_km": 35749.990994297725, "timestamp": "2025-12-20T03:42:47.035451+00:00", "meta": {"OBJECT_NAME": "INSAT-3DR", "OBJECT_ID": "2016-054A", "EPOCH": "2025-12-19T19:07:12.495360", "MEAN_MOTION": 1.00271614, "ECCENTRICITY": 0.0014134, "INCLINATION": 0.1091, "RA_OF_ASC_NODE": 86.4186, "ARG_OF_PERICENTER": 185.1345, "MEAN_ANOMALY": 177.8779, "EPHEMERIS_TYPE": 0, "CLASSIFICATION_TYPE": "U", "NORAD_CAT_ID": 41752, "ELEMENT_SET_NO": 999, "REV_AT_EPOCH": 3402, "BSTAR": 0, "MEAN_MOTION_DOT": -5.3e-07, "MEAN_MOTION_DDOT": 0}, "tle": {"line1": "1 41752U 16054A   25353.79667240 -.00000053  00000+0  00000+0 0  9991", "line2": "2 41752   0.1091  86.4186 0014134 185.1345 177.8779  1.00271614 34022"}}, "geometry": {"type": "Point", "coordinates": [-141.46204581091627, 0.060187380947175025]}}]}